NORAD_CAT_ID,OBJECT_NAME,OBJECT_TYPE,EPOCH,MEAN_MOTION,ECCENTRICITY,INCLINATION,RA_OF_ASC_NODE,ARG_OF_PERICENTER,MEAN_ANOMALY,BSTAR,MEAN_MOTION_DOT,MEAN_MOTION_DDOT,TLE_LINE0,TLE_LINE1,TLE_LINE2,SEMIMAJOR_AXIS,PERIOD,APOGEE,PERIGEE,DECAYED
52666.0,STARLINK-4079,PAYLOAD,2024-03-30 08:00:24,15.08840826,0.000161,53.2177,98.1603,103.1992,256.918,0.00033169,4.995e-05,0.0,0 STARLINK-4079,1 52666U 22053L   24090.33361452  .00004995  00000-0  33169-3 0  9991,2 52666  53.2177  98.1603 0001610 103.1992 256.9180 15.08840826103964,6917.878,95.438,540.857,538.629,0.0
52666.0,STARLINK-4079,PAYLOAD,2024-03-30 17:32:42,15.08844314,0.0001314,53.2157,96.3733,90.0119,270.1024,-1.9437e-06,-3.19e-06,0.0,0 STARLINK-4079,1 52666U 22053L   24090.73105079 -.00000319  00000-0 -19437-5 0  9998,2 52666  53.2157  96.3733 0001314  90.0119 270.1024 15.08844314104021,6917.867,95.437,540.641,538.823,0.0
52666.0,STARLINK-4079,PAYLOAD,2024-03-31 04:40:25,15.08836911,0.0001378,53.2157,94.292,88.1883,271.9266,9.2986e-05,1.192e-05,0.0,0 STARLINK-4079,1 52666U 22053L   24091.19473711  .00001192  00000-0  92986-4 0  9997,2 52666  53.2157  94.2920 0001378  88.1883 271.9266 15.08836911104090,6917.89,95.438,540.708,538.802,0.0
52666.0,STARLINK-4079,PAYLOAD,2024-03-31 07:51:11,15.08841212,0.0001425,53.2161,93.6973,87.6393,272.4762,0.00010378,1.364e-05,0.0,0 STARLINK-4079,1 52666U 22053L   24091.32721519  .00001364  00000-0  10378-3 0  9999,2 52666  53.2161  93.6973 0001425  87.6393 272.4762 15.08841212104119,6917.877,95.437,540.727,538.756,0.0
52666.0,STARLINK-4079,PAYLOAD,2024-03-31 17:23:30,15.08836461,0.0001354,53.2165,91.9124,89.5867,270.528,5.1757e-05,5.36e-06,0.0,0 STARLINK-4079,1 52666U 22053L   24091.72466013  .00000536  00000-0  51757-4 0  9995,2 52666  53.2165  91.9124 0001354  89.5867 270.5280 15.08836461104170,6917.891,95.438,540.693,538.82,0.0
52666.0,STARLINK-4079,PAYLOAD,2024-04-01 09:17:21,15.08842056,0.000139,53.216,88.9382,94.1197,265.9954,2.9194e-05,1.77e-06,0.0,0 STARLINK-4079,1 52666U 22053L   24092.38705842  .00000177  00000-0  29194-4 0  9995,2 52666  53.2160  88.9382 0001390  94.1197 265.9954 15.08842056104279,6917.874,95.437,540.701,538.778,0.0
52666.0,STARLINK-4079,PAYLOAD,2024-04-02 02:46:35,15.08847938,0.0001483,53.2168,85.6674,88.3572,271.759,0.00020246,2.936e-05,0.0,0 STARLINK-4079,1 52666U 22053L   24093.11569052  .00002936  00000-0  20246-3 0  9991,2 52666  53.2168  85.6674 0001483  88.3572 271.7590 15.08847938104387,6917.856,95.437,540.747,538.695,0.0
52666.0,STARLINK-4079,PAYLOAD,2024-04-02 05:57:21,15.08850124,0.0001376,53.2166,85.0724,89.6872,270.4278,0.00024116,3.553e-05,0.0,0 STARLINK-4079,1 52666U 22053L   24093.24816843  .00003553  00000-0  24116-3 0  9994,2 52666  53.2166  85.0724 0001376  89.6872 270.4278 15.08850124104406,6917.849,95.437,540.666,538.763,0.0
52666.0,STARLINK-4079,PAYLOAD,2024-04-03 05:48:09,15.08838287,0.0001526,53.2164,80.6105,90.1615,269.9552,8.3136e-05,1.035e-05,0.0,0 STARLINK-4079,1 52666U 22053L   24094.24178033  .00001035  00000-0  83136-4 0  9998,2 52666  53.2164  80.6105 0001526  90.1615 269.9552 15.08838287104557,6917.886,95.438,540.806,538.695,0.0
52666.0,STARLINK-4079,PAYLOAD,2024-04-04 05:38:56,15.08847571,0.0001307,53.2166,76.1518,87.3841,272.73,6.2691e-05,7.1e-06,0.0,0 STARLINK-4079,1 52666U 22053L   24095.23537454  .00000710  00000-0  62691-4 0  9996,2 52666  53.2166  76.1518 0001307  87.3841 272.7300 15.08847571104709,6917.857,95.437,540.626,538.818,0.0
52666.0,STARLINK-4079,PAYLOAD,2024-04-04 21:32:46,15.08869299,0.0001166,53.2165,73.1774,89.4828,270.6297,0.00045995,7.046e-05,0.0,0 STARLINK-4079,1 52666U 22053L   24095.89775521  .00007046  00000-0  45995-3 0  9993,2 52666  53.2165  73.1774 0001166  89.4828 270.6297 15.08869299104804,6917.791,95.436,540.462,538.849,0.0
52666.0,STARLINK-4079,PAYLOAD,2024-04-05 05:29:42,15.088397,0.0001275,53.2169,71.6913,88.2844,271.8294,-1.1564e-05,-4.72e-06,0.0,0 STARLINK-4079,1 52666U 22053L   24096.22896824 -.00000472  00000-0 -11564-4 0  9995,2 52666  53.2169  71.6913 0001275  88.2844 271.8294 15.08839700104851,6917.881,95.438,540.628,538.864,0.0
52666.0,STARLINK-4079,PAYLOAD,2024-04-05 08:40:29,15.08838908,0.0001287,53.217,71.0971,88.3558,271.7582,-3.5524e-05,-8.53e-06,0.0,0 STARLINK-4079,1 52666U 22053L   24096.36144837 -.00000853  00000-0 -35524-4 0  9995,2 52666  53.2170  71.0971 0001287  88.3558 271.7582 15.08838908104877,6917.884,95.438,540.639,538.858,0.0
52666.0,STARLINK-4079,PAYLOAD,2024-04-05 15:02:02,15.0882954,0.0001207,53.2162,69.9068,84.033,276.08,-0.00018389,-3.212e-05,0.0,0 STARLINK-4079,1 52666U 22053L   24096.62641339 -.00003212  00000-0 -18389-3 0  9994,2 52666  53.2162  69.9068 0001207  84.0330 276.0800 15.08829540104912,6917.912,95.438,540.612,538.942,0.0
52666.0,STARLINK-4079,PAYLOAD,2024-04-06 03:45:08,15.08823688,0.00013,53.2176,67.5305,93.4363,266.6778,-0.00014058,-2.523e-05,0.0,0 STARLINK-4079,1 52666U 22053L   24097.15635152 -.00002523  00000-0 -14058-3 0  9992,2 52666  53.2176  67.5305 0001300  93.4363 266.6778 15.08823688104993,6917.93,95.439,540.695,538.896,0.0
52666.0,STARLINK-4079,PAYLOAD,2024-04-06 06:55:54,15.08826942,0.0001446,53.2185,66.9358,98.9314,261.1842,-0.00010382,-1.939e-05,0.0,0 STARLINK-4079,1 52666U 22053L   24097.28882933 -.00001939  00000-0 -10382-3 0  9993,2 52666  53.2185  66.9358 0001446  98.9314 261.1842 15.08826942105013,6917.92,95.438,540.786,538.785,0.0
52666.0,STARLINK-4079,PAYLOAD,2024-04-06 21:14:23,15.08833296,0.0001531,53.2196,64.2577,90.6702,269.4466,-0.00024107,-4.122e-05,0.0,0 STARLINK-4079,1 52666U 22053L   24097.88499209 -.00004122  00000-0 -24107-3 0  9996,2 52666  53.2196  64.2577 0001531  90.6702 269.4466 15.08833296105107,6917.901,95.438,540.825,538.707,0.0
52666.0,STARLINK-4079,PAYLOAD,2024-04-07 06:46:41,15.08840309,0.0002049,53.2183,62.4732,98.9412,261.1812,0.00018466,2.652e-05,0.0,0 STARLINK-4079,1 52666U 22053L   24098.28241941  .00002652  00000-0  18466-3 0  9994,2 52666  53.2183  62.4732 0002049  98.9412 261.1812 15.08840309105163,6917.879,95.438,541.162,538.327,0.0
52666.0,STARLINK-4079,PAYLOAD,2024-04-07 14:43:37,15.08827473,0.0001732,53.2185,60.9863,89.5732,270.5458,0.00043847,6.695e-05,0.0,0 STARLINK-4079,1 52666U 22053L   24098.61363113  .00006695  00000-0  43847-3 0  9999,2 52666  53.2185  60.9863 0001732  89.5732 270.5458 15.08827473105215,6917.919,95.438,540.982,538.585,0.0
52666.0,STARLINK-4079,PAYLOAD,2024-04-08 14:34:24,15.08840332,0.000153,53.2174,56.5256,91.5796,268.5371,0.00025248,3.733e-05,0.0,0 STARLINK-4079,1 52666U 22053L   24099.60722905  .00003733  00000-0  25248-3 0  9992,2 52666  53.2174  56.5256 0001530  91.5796 268.5371 15.08840332105365,6917.879,95.438,540.803,538.686,0.0
52666.0,STARLINK-4079,PAYLOAD,2024-04-09 03:17:29,15.08849064,0.0001439,53.2171,54.146,92.4996,267.6161,0.00019869,2.876e-05,0.0,0 STARLINK-4079,1 52666U 22053L   24100.13714383  .00002876  00000-0  19869-3 0  9993,2 52666  53.2171  54.1460 0001439  92.4996 267.6161 15.08849064105440,6917.853,95.437,540.713,538.722,0.0
52666.0,STARLINK-4079,PAYLOAD,2024-04-09 14:25:11,15.08842718,0.0001435,53.2174,52.0643,95.2371,264.8785,8.9594e-05,1.138e-05,0.0,0 STARLINK-4079,1 52666U 22053L   24100.60082683  .00001138  00000-0  89594-4 0  9999,2 52666  53.2174  52.0643 0001435  95.2371 264.8785 15.08842718105515,6917.872,95.437,540.73,538.744,0.0
52666.0,STARLINK-4079,PAYLOAD,2024-04-09 20:46:44,15.08833199,0.000148,53.2174,50.8754,94.3943,265.7218,0.00030184,4.518e-05,0.0,0 STARLINK-4079,1 52666U 22053L   24100.86579290  .00004518  00000-0  30184-3 0  9997,2 52666  53.2174  50.8754 0001480  94.3943 265.7218 15.08833199105557,6917.901,95.438,540.79,538.742,0.0
52666.0,STARLINK-4079,PAYLOAD,2024-04-10 06:19:02,15.0884306,0.0001549,53.218,49.0916,90.8871,269.2298,9.808e-05,1.273e-05,0.0,0 STARLINK-4079,1 52666U 22053L   24101.26322785  .00001273  00000-0  98080-4 0  9992,2 52666  53.2180  49.0916 0001549  90.8871 269.2298 15.08843060105613,6917.871,95.437,540.808,538.664,0.0
52666.0,STARLINK-4079,PAYLOAD,2024-04-11 02:59:03,15.08846668,0.0001486,53.2191,45.2252,91.6102,268.506,0.0001398,1.938e-05,0.0,0 STARLINK-4079,1 52666U 22053L   24102.12434465  .00001938  00000-0  13980-3 0  9990,2 52666  53.2191  45.2252 0001486  91.6102 268.5060 15.08846668105742,6917.86,95.437,540.753,538.697,0.0
52666.0,STARLINK-4079,PAYLOAD,2024-04-12 02:49:50,15.08836068,0.0001429,53.2189,40.767,86.167,273.9485,6.9126e-06,-1.78e-06,0.0,0 STARLINK-4079,1 52666U 22053L   24103.11795062 -.00000178  00000-0  69126-5 0  9994,2 52666  53.2189  40.7670 0001429  86.1670 273.9485 15.08836068105899,6917.892,95.438,540.746,538.769,0.0
52666.0,STARLINK-4079,PAYLOAD,2024-04-12 06:00:37,15.08839493,0.0001355,53.2189,40.1698,85.3603,274.7544,4.6496e-05,4.52e-06,0.0,0 STARLINK-4079,1 52666U 22053L   24103.25042997  .00000452  00000-0  46496-4 0  9999,2 52666  53.2189  40.1698 0001355  85.3603 274.7544 15.08839493105911,6917.882,95.438,540.684,538.81,0.0
52666.0,STARLINK-4079,PAYLOAD,2024-04-13 05:51:24,15.08842024,0.0001398,53.2197,35.7081,83.9591,276.156,-1.6561e-06,-3.14e-06,0.0,0 STARLINK-4079,1 52666U 22053L   24104.24403233 -.00000314  00000-0 -16561-5 0  9993,2 52666  53.2197  35.7081 0001398  83.9591 276.1560 15.08842024106068,6917.874,95.437,540.706,538.772,0.0
52666.0,STARLINK-4079,PAYLOAD,2024-04-14 05:42:10,15.08853541,0.0001178,53.2193,31.2497,143.5739,216.5333,0.00015548,2.188e-05,0.0,0 STARLINK-4079,1 52666U 22053L   24105.23761853  .00002188  00000-0  15548-3 0  9999,2 52666  53.2193  31.2497 0001178 143.5739 216.5333 15.08853541106218,6917.839,95.437,540.519,538.889,0.0
52666.0,STARLINK-4079,PAYLOAD,2024-04-15 03:57:34,15.08855291,0.0001188,53.2196,27.0862,92.0203,268.0925,0.00018379,2.64e-05,0.0,0 STARLINK-4079,1 52666U 22053L   24106.16498216  .00002640  00000-0  18379-3 0  9990,2 52666  53.2196  27.0862 0001188  92.0203 268.0925 15.08855291106353,6917.834,95.437,540.52,538.877,0.0
